{
    "links": {
        "self": "http://www.neowsapp.com/rest/v1/neo/3351830?api_key=iIulBulltgU6a56xZRHN4H3l9WmuAYTsLGpBGhQ2"
    },
    "id": "3351830",
    "neo_reference_id": "3351830",
    "name": "(2006 UY16)",
    "designation": "2006 UY16",
    "nasa_jpl_url": "http://ssd.jpl.nasa.gov/sbdb.cgi?sstr=3351830",
    "absolute_magnitude_h": 24.5,
    "estimated_diameter": {
        "kilometers": {
            "estimated_diameter_min": 0.0334622374,
            "estimated_diameter_max": 0.0748238376
        },
        "meters": {
            "estimated_diameter_min": 33.4622374455,
            "estimated_diameter_max": 74.8238376074
        },
        "miles": {
            "estimated_diameter_min": 0.0207924639,
            "estimated_diameter_max": 0.0464933628
        },
        "feet": {
            "estimated_diameter_min": 109.7842471007,
            "estimated_diameter_max": 245.4850393757
        }
    },
    "is_potentially_hazardous_asteroid": false,
    "close_approach_data": [
        {
            "close_approach_date": "2006-10-16",
            "close_approach_date_full": "2006-Oct-16 04:50",
            "epoch_date_close_approach": 1160974200000,
            "relative_velocity": {
                "kilometers_per_second": "8.9133407414",
                "kilometers_per_hour": "32088.0266691543",
                "miles_per_hour": "19938.2519045087"
            },
            "miss_distance": {
                "astronomical": "0.077534247",
                "lunar": "30.160822083",
                "kilometers": "11598958.20325389",
                "miles": "7207258.422488082"
            },
            "orbiting_body": "Earth"
        }
    ],
    "orbital_data": {
        "orbit_id": "8",
        "orbit_determination_date": "2017-04-06 09:07:51",
        "first_observation_date": "2006-10-19",
        "last_observation_date": "2006-10-25",
        "data_arc_in_days": 6,
        "observations_used": 34,
        "orbit_uncertainty": "8",
        "minimum_orbit_intersection": ".028825",
        "jupiter_tisserand_invariant": "3.503",
        "epoch_osculation": "2454029.5",
        "eccentricity": ".5257488938004571",
        "semi_major_axis": "2.16041847529484",
        "inclination": "3.202356084626783",
        "ascending_node_longitude": "21.28209283952516",
        "orbital_period": "1159.859144162104",
        "perihelion_distance": "1.024580851762508",
        "perihelion_argument": "337.8176070469142",
        "aphelion_distance": "3.296256098827173",
        "perihelion_time": "2454007.282357751698",
        "mean_anomaly": "6.895967712671546",
        "mean_motion": ".3103825165426172",
        "equinox": "J2000",
        "orbit_class": {
            "orbit_class_type": "AMO",
            "orbit_class_description": "Near-Earth asteroid orbits similar to that of 1221 Amor",
            "orbit_class_range": "1.017 AU < q (perihelion) < 1.3 AU"
        }
    },
    "is_sentry_object": false
}